NORAD_CAT_ID,OBJECT_NAME,OBJECT_TYPE,EPOCH,MEAN_MOTION,ECCENTRICITY,INCLINATION,RA_OF_ASC_NODE,ARG_OF_PERICENTER,MEAN_ANOMALY,BSTAR,MEAN_MOTION_DOT,MEAN_MOTION_DDOT,TLE_LINE0,TLE_LINE1,TLE_LINE2,SEMIMAJOR_AXIS,PERIOD,APOGEE,PERIGEE,DECAYED
55407.0,STARLINK-5019,PAYLOAD,2023-04-20 18:05:57,15.69916753,0.0003516,69.9993,227.3872,268.5847,91.4946,7.5332e-07,-1.22e-06,0.0,0 STARLINK-5019,1 55407U 23014S   23110.75413920 -.00000122  00000-0  75332-6 0  9991,2 55407  69.9993 227.3872 0003516 268.5847  91.4946 15.69916753 12619,6737.272,91.725,361.506,356.768,0.0
55407.0,STARLINK-5019,PAYLOAD,2023-04-21 13:58:43,15.69923745,0.0003707,69.9985,225.0589,266.6454,93.4318,1.579e-05,1.686e-05,0.0,0 STARLINK-5019,1 55407U 23014S   23111.58244897  .00001686  00000-0  15790-4 0  9993,2 55407  69.9985 225.0589 0003707 266.6454  93.4318 15.69923745 13687,6737.252,91.724,361.615,356.62,0.0
55407.0,STARLINK-5019,PAYLOAD,2023-04-21 17:02:13,15.69933192,0.0003494,69.9986,224.7005,266.4753,93.6043,3.9249e-06,2.59e-06,0.0,0 STARLINK-5019,1 55407U 23014S   23111.70987811  .00000259  00000-0  39249-5 0  9998,2 55407  69.9986 224.7005 0003494 266.4753  93.6043 15.69933192 12762,6737.225,91.724,361.444,356.736,0.0
55407.0,STARLINK-5019,PAYLOAD,2023-04-22 00:40:58,15.69928593,0.0003671,69.9975,223.8036,263.8553,96.2224,3.1143e-05,3.534e-05,0.0,0 STARLINK-5019,1 55407U 23014S   23112.02845995  .00003534  00000-0  31143-4 0  9993,2 55407  69.9975 223.8036 0003671 263.8553  96.2224 15.69928593 13759,6737.238,91.724,361.577,356.63,0.0
55407.0,STARLINK-5019,PAYLOAD,2023-04-22 17:30:16,15.69918167,0.0003363,69.9984,221.8344,259.0817,101.0001,1.1119e-05,1.124e-05,0.0,0 STARLINK-5019,1 55407U 23014S   23112.72935475  .00001124  00000-0  11119-4 0  9997,2 55407  69.9984 221.8344 0003363 259.0817 101.0001 15.69918167 12929,6737.268,91.725,361.399,356.867,0.0
55407.0,STARLINK-5019,PAYLOAD,2023-04-23 07:16:02,15.69916983,0.000365,69.9978,220.2207,255.8784,104.2006,7.2421e-06,6.58e-06,0.0,0 STARLINK-5019,1 55407U 23014S   23113.30280709  .00000658  00000-0  72421-5 0  9990,2 55407  69.9978 220.2207 0003650 255.8784 104.2006 15.69916983 13957,6737.272,91.725,361.596,356.677,0.0
55407.0,STARLINK-5019,PAYLOAD,2023-04-23 16:26:32,15.69927399,0.0003052,69.9981,219.1461,261.6201,98.4649,1.7395e-05,1.88e-05,0.0,0 STARLINK-5019,1 55407U 23014S   23113.68509934  .00001880  00000-0  17395-4 0  9991,2 55407  69.9981 219.1461 0003052 261.6201  98.4649 15.69927399 13078,6737.242,91.724,361.163,357.051,0.0
55407.0,STARLINK-5019,PAYLOAD,2023-04-24 06:12:17,15.69937931,0.0003284,69.9978,217.533,263.1611,96.9211,1.6776e-05,1.806e-05,0.0,0 STARLINK-5019,1 55407U 23014S   23114.25853998  .00001806  00000-0  16776-4 0  9997,2 55407  69.9978 217.5330 0003284 263.1611  96.9211 15.69937931 13161,6737.212,91.723,361.289,356.864,0.0
55407.0,STARLINK-5019,PAYLOAD,2023-04-25 09:43:54,15.69890153,0.0002768,69.9984,214.3068,247.3406,112.7497,-3.523e-05,-4.44e-05,0.0,0 STARLINK-5019,1 55407U 23014S   23115.40548846 -.00004440  00000-0 -35230-4 0  9993,2 55407  69.9984 214.3068 0002768 247.3406 112.7497 15.69890153 13340,6737.348,91.726,361.078,357.348,0.0
55407.0,STARLINK-5019,PAYLOAD,2023-04-26 08:40:06,15.69953003,0.000321,69.9995,211.6226,267.035,93.0478,4.6156e-05,5.347e-05,0.0,0 STARLINK-5019,1 55407U 23014S   23116.36118419  .00005347  00000-0  46156-4 0  9992,2 55407  69.9995 211.6226 0003210 267.0350  93.0478 15.69953003 14433,6737.168,91.722,361.196,356.871,0.0
55407.0,STARLINK-5019,PAYLOAD,2023-04-26 19:22:22,15.69922869,0.0004132,70.0003,210.3685,278.8916,81.1811,8.1752e-05,9.629e-05,0.0,0 STARLINK-5019,1 55407U 23014S   23116.80720526  .00009629  00000-0  81752-4 0  9997,2 55407  70.0003 210.3685 0004132 278.8916  81.1811 15.69922869 14506,6737.255,91.724,361.904,356.336,0.0
55407.0,STARLINK-5019,PAYLOAD,2023-04-27 09:08:10,15.69911194,0.0002848,69.9971,208.7535,258.0606,102.0271,3.3341e-05,3.796e-05,0.0,0 STARLINK-5019,1 55407U 23014S   23117.38068066  .00003796  00000-0  33341-4 0  9995,2 55407  69.9971 208.7535 0002848 258.0606 102.0271 15.69911194 13657,6737.288,91.725,361.072,357.234,0.0
55407.0,STARLINK-5019,PAYLOAD,2023-04-27 22:53:56,15.69933501,0.0003658,69.9969,207.1434,266.8554,93.2224,-3.0414e-06,-5.79e-06,0.0,0 STARLINK-5019,1 55407U 23014S   23117.95412473 -.00000579  00000-0 -30414-5 0  9990,2 55407  69.9969 207.1434 0003658 266.8554  93.2224 15.69933501 13749,6737.224,91.724,361.554,356.625,0.0
55407.0,STARLINK-5019,PAYLOAD,2023-04-28 12:39:42,15.69936748,0.0003784,69.9992,205.5343,275.5143,84.5621,-2.6578e-05,-3.409e-05,0.0,0 STARLINK-5019,1 55407U 23014S   23118.52757487 -.00003409  00000-0 -26578-4 0  9991,2 55407  69.9992 205.5343 0003784 275.5143  84.5621 15.69936748 14771,6737.215,91.723,361.629,356.531,0.0
55407.0,STARLINK-5019,PAYLOAD,2023-04-28 23:21:58,15.69916489,0.0002886,69.9982,204.2767,274.5909,85.4957,9.774e-06,9.62e-06,0.0,0 STARLINK-5019,1 55407U 23014S   23118.97359476  .00000962  00000-0  97740-5 0  9995,2 55407  69.9982 204.2767 0002886 274.5909  85.4957 15.69916489 13903,6737.273,91.725,361.082,357.194,0.0
55407.0,STARLINK-5019,PAYLOAD,2023-04-29 08:32:29,15.69916468,0.0003921,69.9975,203.2048,276.6245,83.4505,-9.5792e-06,-1.365e-05,0.0,0 STARLINK-5019,1 55407U 23014S   23119.35589854 -.00001365  00000-0 -95792-5 0  9998,2 55407  69.9975 203.2048 0003921 276.6245  83.4505 15.69916468 14908,6737.273,91.725,361.78,356.496,0.0
55407.0,STARLINK-5019,PAYLOAD,2023-04-30 09:00:31,15.69920474,0.0003624,69.9979,200.3393,268.6915,91.3866,8.165e-06,7.69e-06,0.0,0 STARLINK-5019,1 55407U 23014S   23120.37536026  .00000769  00000-0  81650-5 0  9998,2 55407  69.9979 200.3393 0003624 268.6915  91.3866 15.69920474 14122,6737.262,91.724,361.568,356.685,0.0
55407.0,STARLINK-5019,PAYLOAD,2023-04-30 13:35:46,15.69918721,0.0003621,69.9983,199.8024,267.9246,92.1535,6.4185e-06,5.59e-06,0.0,0 STARLINK-5019,1 55407U 23014S   23120.56651255  .00000559  00000-0  64185-5 0  9992,2 55407  69.9983 199.8024 0003621 267.9246  92.1535 15.69918721 15097,6737.267,91.724,361.571,356.692,0.0
55407.0,STARLINK-5019,PAYLOAD,2023-04-30 16:39:17,15.69914878,0.0003544,69.9976,199.4433,260.582,99.4975,8.868e-07,-1.06e-06,0.0,0 STARLINK-5019,1 55407U 23014S   23120.69394928 -.00000106  00000-0  88680-6 0  9993,2 55407  69.9976 199.4433 0003544 260.5820  99.4975 15.69914878 14175,6737.278,91.725,361.53,356.755,0.0
55407.0,STARLINK-5019,PAYLOAD,2023-05-01 12:32:03,15.69921711,0.000347,69.9974,197.1127,265.5969,94.4831,2.026e-05,2.224e-05,0.0,0 STARLINK-5019,1 55407U 23014S   23121.52226039  .00002224  00000-0  20260-4 0  9993,2 55407  69.9974 197.1127 0003470 265.5969  94.4831 15.69921711 14300,6737.258,91.724,361.461,356.785,0.0
55407.0,STARLINK-5019,PAYLOAD,2023-05-01 17:07:19,15.69917237,0.0003212,69.9975,196.5732,270.0515,90.0313,1.6956e-05,1.826e-05,0.0,0 STARLINK-5019,1 55407U 23014S   23121.71341484  .00001826  00000-0  16956-4 0  9990,2 55407  69.9975 196.5732 0003212 270.0515  90.0313 15.69917237 15270,6737.271,91.725,361.3,356.972,0.0
55407.0,STARLINK-5019,PAYLOAD,2023-05-02 13:00:04,15.69929139,0.0003664,69.9976,194.2458,267.3872,92.6904,2.1805e-05,2.41e-05,0.0,0 STARLINK-5019,1 55407U 23014S   23122.54172065  .00002410  00000-0  21805-4 0  9998,2 55407  69.9976 194.2458 0003664 267.3872  92.6904 15.69929139 14465,6737.237,91.724,361.57,356.633,0.0
55407.0,STARLINK-5019,PAYLOAD,2023-05-02 16:03:37,15.69902841,0.0002938,69.9975,193.8874,283.1276,76.9592,-5.8573e-06,-9.16e-06,0.0,0 STARLINK-5019,1 55407U 23014S   23122.66918029 -.00000916  00000-0 -58573-5 0  9993,2 55407  69.9975 193.8874 0002938 283.1276  76.9592 15.69902841 14489,6737.312,91.725,361.156,357.198,0.0
55407.0,STARLINK-5019,PAYLOAD,2023-05-02 22:10:36,15.69914895,0.0003296,69.998,193.1721,269.2477,90.8341,6.5512e-06,5.75e-06,0.0,0 STARLINK-5019,1 55407U 23014S   23122.92403687  .00000575  00000-0  65512-5 0  9991,2 55407  69.9980 193.1721 0003296 269.2477  90.8341 15.69914895 14529,6737.277,91.725,361.363,356.922,0.0
55407.0,STARLINK-5019,PAYLOAD,2023-05-03 13:28:07,15.69929371,0.0003237,69.9979,191.3809,269.472,90.6105,9.1274e-06,8.85e-06,0.0,0 STARLINK-5019,1 55407U 23014S   23123.56119479  .00000885  00000-0  91274-5 0  9993,2 55407  69.9979 191.3809 0003237 269.4720  90.6105 15.69929371 15568,6737.236,91.724,361.282,356.92,0.0
55407.0,STARLINK-5019,PAYLOAD,2023-05-03 16:31:38,15.69922927,0.0002979,69.998,191.0222,280.2564,79.8296,2.1949e-06,5.1e-07,0.0,0 STARLINK-5019,1 55407U 23014S   23123.68863487  .00000051  00000-0  21949-5 0  9998,2 55407  69.9980 191.0222 0002979 280.2564  79.8296 15.69922927 14643,6737.255,91.724,361.127,357.112,0.0
55407.0,STARLINK-5019,PAYLOAD,2023-05-04 10:52:38,15.69932175,0.0003516,69.9968,188.8705,269.8385,90.2408,2.546e-05,2.851e-05,0.0,0 STARLINK-5019,1 55407U 23014S   23124.45322174  .00002851  00000-0  25460-4 0  9998,2 55407  69.9968 188.8705 0003516 269.8385  90.2408 15.69932175 14762,6737.228,91.724,361.462,356.724,0.0
55407.0,STARLINK-5019,PAYLOAD,2023-05-04 13:56:10,15.69903728,0.0002997,69.9971,188.5126,270.7028,89.3824,-6.8584e-06,-1.036e-05,0.0,0 STARLINK-5019,1 55407U 23014S   23124.58067938 -.00001036  00000-0 -68584-5 0  9997,2 55407  69.9971 188.5126 0002997 270.7028  89.3824 15.69903728 15727,6737.309,91.725,361.194,357.155,0.0
55407.0,STARLINK-5019,PAYLOAD,2023-05-04 16:59:40,15.69909058,0.0003221,69.9963,188.1529,271.4982,88.5845,-2.2699e-06,-4.85e-06,0.0,0 STARLINK-5019,1 55407U 23014S   23124.70810915 -.00000485  00000-0 -22699-5 0  9996,2 55407  69.9963 188.1529 0003221 271.4982  88.5845 15.69909058 14803,6737.294,91.725,361.329,356.989,0.0
55407.0,STARLINK-5019,PAYLOAD,2023-05-05 05:13:40,15.69921757,0.0003579,69.9975,186.7215,272.6423,87.4363,4.2849e-06,3.02e-06,0.0,0 STARLINK-5019,1 55407U 23014S   23125.21783477  .00000302  00000-0  42849-5 0  9990,2 55407  69.9975 186.7215 0003579 272.6423  87.4363 15.69921757 14882,6737.258,91.724,361.534,356.712,0.0
